[{"OBJECT_NAME":"LEMUR-2-SARAHBETTYBOO","OBJECT_ID":"2018-111N","EPOCH":"2025-03-09T19:22:37.330464","MEAN_MOTION":15.91539685,"ECCENTRICITY":0.0013993,"INCLINATION":97.6366,"RA_OF_ASC_NODE":3.9412,"ARG_OF_PERICENTER":130.5368,"MEAN_ANOMALY":229.7126,"EPHEMERIS_TYPE":0,"CLASSIFICATION_TYPE":"U","NORAD_CAT_ID":43888,"ELEMENT_SET_NO":999,"REV_AT_EPOCH":34075,"BSTAR":0.0036674,"MEAN_MOTION_DOT":0.01179151,"MEAN_MOTION_DDOT":0.00062882},{"OBJECT_NAME":"LEMUR-2-AMANDA-SVANTE","OBJECT_ID":"2021-034B","EPOCH":"2025-03-09T17:52:59.373696","MEAN_MOTION":15.10935118,"ECCENTRICITY":0.000451,"INCLINATION":97.627,"RA_OF_ASC_NODE":137.4508,"ARG_OF_PERICENTER":89.6592,"MEAN_ANOMALY":270.5154,"EPHEMERIS_TYPE":0,"CLASSIFICATION_TYPE":"U","NORAD_CAT_ID":48269,"ELEMENT_SET_NO":999,"REV_AT_EPOCH":21043,"BSTAR":0.0015794,"MEAN_MOTION_DOT":0.00026347,"MEAN_MOTION_DDOT":0},{"OBJECT_NAME":"LEMUR-2-SPECIAL-K","OBJECT_ID":"2021-034F","EPOCH":"2025-03-09T18:56:39.376032","MEAN_MOTION":15.15440349,"ECCENTRICITY":0.0002306,"INCLINATION":97.6148,"RA_OF_ASC_NODE":138.3865,"ARG_OF_PERICENTER":140.6522,"MEAN_ANOMALY":219.4878,"EPHEMERIS_TYPE":0,"CLASSIFICATION_TYPE":"U","NORAD_CAT_ID":48273,"ELEMENT_SET_NO":999,"REV_AT_EPOCH":21053,"BSTAR":0.001877,"MEAN_MOTION_DOT":0.00035564,"MEAN_MOTION_DDOT":0},{"OBJECT_NAME":"LEMUR-2-EMBRIONOVIS","OBJECT_ID":"2023-084AQ","EPOCH":"2025-03-09T21:11:48.341760","MEAN_MOTION":15.27668463,"ECCENTRICITY":0.0011787,"INCLINATION":97.568,"RA_OF_ASC_NODE":195.9161,"ARG_OF_PERICENTER":157.1164,"MEAN_ANOMALY":203.0603,"EPHEMERIS_TYPE":0,"CLASSIFICATION_TYPE":"U","NORAD_CAT_ID":56970,"ELEMENT_SET_NO":999,"REV_AT_EPOCH":9658,"BSTAR":0.00050486,"MEAN_MOTION_DOT":0.00013614,"MEAN_MOTION_DDOT":0},{"OBJECT_NAME":"LEMUR-2-MANO","OBJECT_ID":"2023-100E","EPOCH":"2025-03-09T17:13:04.000224","MEAN_MOTION":15.21254998,"ECCENTRICITY":0.0010578,"INCLINATION":99.4587,"RA_OF_ASC_NODE":341.9838,"ARG_OF_PERICENTER":136.8502,"MEAN_ANOMALY":223.3558,"EPHEMERIS_TYPE":0,"CLASSIFICATION_TYPE":"U","NORAD_CAT_ID":57390,"ELEMENT_SET_NO":999,"REV_AT_EPOCH":9040,"BSTAR":0.0023295,"MEAN_MOTION_DOT":0.00052369,"MEAN_MOTION_DDOT":0},{"OBJECT_NAME":"LEMUR-2-DEVERILL-M-T","OBJECT_ID":"2023-100F","EPOCH":"2025-03-09T05:57:51.659712","MEAN_MOTION":15.15871187,"ECCENTRICITY":0.0011112,"INCLINATION":99.4392,"RA_OF_ASC_NODE":338.7877,"ARG_OF_PERICENTER":144.4505,"MEAN_ANOMALY":215.7464,"EPHEMERIS_TYPE":0,"CLASSIFICATION_TYPE":"U","NORAD_CAT_ID":57391,"ELEMENT_SET_NO":999,"REV_AT_EPOCH":9026,"BSTAR":0.0018978,"MEAN_MOTION_DOT":0.00036445,"MEAN_MOTION_DDOT":0},{"OBJECT_NAME":"LEMUR-2-BASS","OBJECT_ID":"2023-174D","EPOCH":"2025-03-09T17:42:15.214176","MEAN_MOTION":15.28395032,"ECCENTRICITY":0.0009906,"INCLINATION":97.4224,"RA_OF_ASC_NODE":146.439,"ARG_OF_PERICENTER":39.8893,"MEAN_ANOMALY":320.3073,"EPHEMERIS_TYPE":0,"CLASSIFICATION_TYPE":"U","NORAD_CAT_ID":58259,"ELEMENT_SET_NO":999,"REV_AT_EPOCH":7410,"BSTAR":0.00075964,"MEAN_MOTION_DOT":0.00020992,"MEAN_MOTION_DDOT":0},{"OBJECT_NAME":"LEMUR-2-DILIGHTFUL","OBJECT_ID":"2023-174E","EPOCH":"2025-03-09T18:31:33.057696","MEAN_MOTION":15.54476769,"ECCENTRICITY":0.0004333,"INCLINATION":97.4227,"RA_OF_ASC_NODE":152.0432,"ARG_OF_PERICENTER":329.9498,"MEAN_ANOMALY":30.1507,"EPHEMERIS_TYPE":0,"CLASSIFICATION_TYPE":"U","NORAD_CAT_ID":58260,"ELEMENT_SET_NO":999,"REV_AT_EPOCH":7445,"BSTAR":0.0024566,"MEAN_MOTION_DOT":0.00164641,"MEAN_MOTION_DDOT":0},{"OBJECT_NAME":"LEMUR-2-GOOD-VIBES","OBJECT_ID":"2023-174H","EPOCH":"2025-03-09T18:32:11.708736","MEAN_MOTION":15.54401966,"ECCENTRICITY":0.0003728,"INCLINATION":97.4098,"RA_OF_ASC_NODE":151.5499,"ARG_OF_PERICENTER":343.8139,"MEAN_ANOMALY":16.2995,"EPHEMERIS_TYPE":0,"CLASSIFICATION_TYPE":"U","NORAD_CAT_ID":58263,"ELEMENT_SET_NO":999,"REV_AT_EPOCH":7445,"BSTAR":0.0018953,"MEAN_MOTION_DOT":0.00126034,"MEAN_MOTION_DDOT":0},{"OBJECT_NAME":"LEMUR-2-SANITA-VETRA","OBJECT_ID":"2023-174M","EPOCH":"2025-03-09T17:47:05.582976","MEAN_MOTION":15.54475768,"ECCENTRICITY":0.0003463,"INCLINATION":97.417,"RA_OF_ASC_NODE":151.6567,"ARG_OF_PERICENTER":320.0263,"MEAN_ANOMALY":40.0735,"EPHEMERIS_TYPE":0,"CLASSIFICATION_TYPE":"U","NORAD_CAT_ID":58267,"ELEMENT_SET_NO":999,"REV_AT_EPOCH":7445,"BSTAR":0.0019342,"MEAN_MOTION_DOT":0.00129012,"MEAN_MOTION_DDOT":0},{"OBJECT_NAME":"LEMUR-2-MARAPAMASM","OBJECT_ID":"2023-174CE","EPOCH":"2025-03-09T18:05:38.005440","MEAN_MOTION":15.76152143,"ECCENTRICITY":0.0006715,"INCLINATION":97.4094,"RA_OF_ASC_NODE":156.1321,"ARG_OF_PERICENTER":285.1712,"MEAN_ANOMALY":74.881,"EPHEMERIS_TYPE":0,"CLASSIFICATION_TYPE":"U","NORAD_CAT_ID":58332,"ELEMENT_SET_NO":999,"REV_AT_EPOCH":7475,"BSTAR":0.0022018,"MEAN_MOTION_DOT":0.00357264,"MEAN_MOTION_DDOT":0},{"OBJECT_NAME":"LEMUR-2-THE-CLEANER","OBJECT_ID":"2023-174CF","EPOCH":"2025-03-09T17:42:36.108288","MEAN_MOTION":15.597864,"ECCENTRICITY":0.000612,"INCLINATION":97.4167,"RA_OF_ASC_NODE":153.0421,"ARG_OF_PERICENTER":281.1427,"MEAN_ANOMALY":78.9141,"EPHEMERIS_TYPE":0,"CLASSIFICATION_TYPE":"U","NORAD_CAT_ID":58333,"ELEMENT_SET_NO":999,"REV_AT_EPOCH":7454,"BSTAR":0.0020191,"MEAN_MOTION_DOT":0.00164808,"MEAN_MOTION_DDOT":0},{"OBJECT_NAME":"LEMUR-2-JK0903EM1407","OBJECT_ID":"2023-174CJ","EPOCH":"2025-03-09T18:02:25.823328","MEAN_MOTION":15.31948106,"ECCENTRICITY":0.0006992,"INCLINATION":97.4225,"RA_OF_ASC_NODE":148.2109,"ARG_OF_PERICENTER":356.4269,"MEAN_ANOMALY":3.6921,"EPHEMERIS_TYPE":0,"CLASSIFICATION_TYPE":"U","NORAD_CAT_ID":58336,"ELEMENT_SET_NO":999,"REV_AT_EPOCH":7422,"BSTAR":0.00062803,"MEAN_MOTION_DOT":0.00019335,"MEAN_MOTION_DDOT":0},{"OBJECT_NAME":"LEMUR-2-MJR092620","OBJECT_ID":"2023-174CN","EPOCH":"2025-03-09T18:25:55.269120","MEAN_MOTION":15.32387334,"ECCENTRICITY":0.0007437,"INCLINATION":97.4288,"RA_OF_ASC_NODE":148.8923,"ARG_OF_PERICENTER":357.4443,"MEAN_ANOMALY":2.676,"EPHEMERIS_TYPE":0,"CLASSIFICATION_TYPE":"U","NORAD_CAT_ID":58340,"ELEMENT_SET_NO":999,"REV_AT_EPOCH":7424,"BSTAR":0.0005837,"MEAN_MOTION_DOT":0.00018212,"MEAN_MOTION_DDOT":0}]
