LEMUR-2-SARAHBETTYBOO   
1 43888U 18111N   25068.80737651  .01179151  62882-3  36674-2 0  9993
2 43888  97.6366   3.9412 0013993 130.5368 229.7126 15.91539685340750
LEMUR-2-AMANDA-SVANTE   
1 48269U 21034B   25068.74513164  .00026347  00000+0  15794-2 0  9990
2 48269  97.6270 137.4508 0004510  89.6592 270.5154 15.10935118210437
LEMUR-2-SPECIAL-K       
1 48273U 21034F   25068.78934463  .00035564  00000+0  18770-2 0  9996
2 48273  97.6148 138.3865 0002306 140.6522 219.4878 15.15440349210532
LEMUR-2-EMBRIONOVIS     
1 56970U 23084AQ  25068.88319840  .00013614  00000+0  50486-3 0  9996
2 56970  97.5680 195.9161 0011787 157.1164 203.0603 15.27668463 96585
LEMUR-2-MANO            
1 57390U 23100E   25068.71740741  .00052369  00000+0  23295-2 0  9999
2 57390  99.4587 341.9838 0010578 136.8502 223.3558 15.21254998 90407
LEMUR-2-DEVERILL-M-T    
1 57391U 23100F   25068.24851458  .00036445  00000+0  18978-2 0  9995
2 57391  99.4392 338.7877 0011112 144.4505 215.7464 15.15871187 90265
LEMUR-2-BASS            
1 58259U 23174D   25068.73767609  .00020992  00000+0  75964-3 0  9997
2 58259  97.4224 146.4390 0009906  39.8893 320.3073 15.28395032 74108
LEMUR-2-DILIGHTFUL      
1 58260U 23174E   25068.77191039  .00164641  00000+0  24566-2 0  9992
2 58260  97.4227 152.0432 0004333 329.9498  30.1507 15.54476769 74458
LEMUR-2-GOOD-VIBES      
1 58263U 23174H   25068.77235774  .00126034  00000+0  18953-2 0  9997
2 58263  97.4098 151.5499 0003728 343.8139  16.2995 15.54401966 74451
LEMUR-2-SANITA-VETRA    
1 58267U 23174M   25068.74103684  .00129012  00000+0  19342-2 0  9994
2 58267  97.4170 151.6567 0003463 320.0263  40.0735 15.54475768 74452
LEMUR-2-MARAPAMASM      
1 58332U 23174CE  25068.75391210  .00357264  00000+0  22018-2 0  9998
2 58332  97.4094 156.1321 0006715 285.1712  74.8810 15.76152143 74756
LEMUR-2-THE-CLEANER     
1 58333U 23174CF  25068.73791792  .00164808  00000+0  20191-2 0  9996
2 58333  97.4167 153.0421 0006120 281.1427  78.9141 15.59786400 74543
LEMUR-2-JK0903EM1407    
1 58336U 23174CJ  25068.75168777  .00019335  00000+0  62803-3 0  9993
2 58336  97.4225 148.2109 0006992 356.4269   3.6921 15.31948106 74226
LEMUR-2-MJR092620       
1 58340U 23174CN  25068.76800080  .00018212  00000+0  58370-3 0  9996
2 58340  97.4288 148.8923 0007437 357.4443   2.6760 15.32387334 74243
